CCSDS_OMM_VERS = 2.0
CREATION_DATE  = 
ORIGINATOR     = 

OBJECT_NAME    = SL-14 R/B
OBJECT_ID      = 1986-046B
CENTER_NAME    = EARTH
REF_FRAME      = TEME
TIME_SYSTEM    = UTC
MEAN_ELEMENT_THEORY = SGP/SGP4

EPOCH          = 2026-03-20T09:10:08.101344
MEAN_MOTION    = 14.85600130
ECCENTRICITY   = .00227977
INCLINATION    = 82.4790
RA_OF_ASC_NODE = 70.0755
ARG_OF_PERICENTER = 188.8755
MEAN_ANOMALY   = 171.2062

EPHEMERIS_TYPE = 0
CLASSIFICATION_TYPE = U
NORAD_CAT_ID   = 16792
ELEMENT_SET_NO = 999
REV_AT_EPOCH   = 12799
BSTAR          = .44168792E-4
MEAN_MOTION_DOT = .408E-5
MEAN_MOTION_DDOT = 0

CCSDS_OMM_VERS = 2.0
CREATION_DATE  = 
ORIGINATOR     = 

OBJECT_NAME    = SL-14 R/B
OBJECT_ID      = 1986-055B
CENTER_NAME    = EARTH
REF_FRAME      = TEME
TIME_SYSTEM    = UTC
MEAN_ELEMENT_THEORY = SGP/SGP4

EPOCH          = 2026-03-20T08:49:28.490304
MEAN_MOTION    = 14.85651520
ECCENTRICITY   = .00174908
INCLINATION    = 82.5181
RA_OF_ASC_NODE = 116.6361
ARG_OF_PERICENTER = 299.2069
MEAN_ANOMALY   = 71.1690

EPHEMERIS_TYPE = 0
CLASSIFICATION_TYPE = U
NORAD_CAT_ID   = 16882
ELEMENT_SET_NO = 999
REV_AT_EPOCH   = 12095
BSTAR          = .40285266E-4
MEAN_MOTION_DOT = .374E-5
MEAN_MOTION_DDOT = 0

CCSDS_OMM_VERS = 2.0
CREATION_DATE  = 
ORIGINATOR     = 

OBJECT_NAME    = AJISAI (EGS)
OBJECT_ID      = 1986-061A
CENTER_NAME    = EARTH
REF_FRAME      = TEME
TIME_SYSTEM    = UTC
MEAN_ELEMENT_THEORY = SGP/SGP4

EPOCH          = 2026-03-20T13:33:45.282816
MEAN_MOTION    = 12.44515677
ECCENTRICITY   = .00113074
INCLINATION    = 50.0094
RA_OF_ASC_NODE = 59.9043
ARG_OF_PERICENTER = 315.0531
MEAN_ANOMALY   = 150.9447

EPHEMERIS_TYPE = 0
CLASSIFICATION_TYPE = U
NORAD_CAT_ID   = 16908
ELEMENT_SET_NO = 999
REV_AT_EPOCH   = 46935
BSTAR          = -.12244588E-3
MEAN_MOTION_DOT = -.115E-5
MEAN_MOTION_DDOT = 0

CCSDS_OMM_VERS = 2.0
CREATION_DATE  = 
ORIGINATOR     = 

OBJECT_NAME    = SL-14 R/B
OBJECT_ID      = 1987-024B
CENTER_NAME    = EARTH
REF_FRAME      = TEME
TIME_SYSTEM    = UTC
MEAN_ELEMENT_THEORY = SGP/SGP4

EPOCH          = 2026-03-20T09:52:36.890976
MEAN_MOTION    = 14.86141678
ECCENTRICITY   = .00171341
INCLINATION    = 82.5245
RA_OF_ASC_NODE = 82.6830
ARG_OF_PERICENTER = 221.5933
MEAN_ANOMALY   = 138.3981

EPHEMERIS_TYPE = 0
CLASSIFICATION_TYPE = U
NORAD_CAT_ID   = 17567
ELEMENT_SET_NO = 999
REV_AT_EPOCH   = 8972
BSTAR          = .43509339E-4
MEAN_MOTION_DOT = .406E-5
MEAN_MOTION_DDOT = 0

CCSDS_OMM_VERS = 2.0
CREATION_DATE  = 
ORIGINATOR     = 

OBJECT_NAME    = COSMOS 1833
OBJECT_ID      = 1987-027A
CENTER_NAME    = EARTH
REF_FRAME      = TEME
TIME_SYSTEM    = UTC
MEAN_ELEMENT_THEORY = SGP/SGP4

EPOCH          = 2026-03-20T14:53:15.194400
MEAN_MOTION    = 14.13051227
ECCENTRICITY   = .00236984
INCLINATION    = 70.9194
RA_OF_ASC_NODE = 303.0455
ARG_OF_PERICENTER = 198.7745
MEAN_ANOMALY   = 161.2504

EPHEMERIS_TYPE = 0
CLASSIFICATION_TYPE = U
NORAD_CAT_ID   = 17589
ELEMENT_SET_NO = 999
REV_AT_EPOCH   = 1186
BSTAR          = -.10520287E-3
MEAN_MOTION_DOT = -.245E-5
MEAN_MOTION_DDOT = 0

CCSDS_OMM_VERS = 2.0
CREATION_DATE  = 
ORIGINATOR     = 

OBJECT_NAME    = SL-16 R/B
OBJECT_ID      = 1987-027B
CENTER_NAME    = EARTH
REF_FRAME      = TEME
TIME_SYSTEM    = UTC
MEAN_ELEMENT_THEORY = SGP/SGP4

EPOCH          = 2026-03-20T10:06:24.729120
MEAN_MOTION    = 14.17166613
ECCENTRICITY   = .00030341
INCLINATION    = 70.9993
RA_OF_ASC_NODE = 253.8789
ARG_OF_PERICENTER = 117.5862
MEAN_ANOMALY   = 242.5571

EPHEMERIS_TYPE = 0
CLASSIFICATION_TYPE = U
NORAD_CAT_ID   = 17590
ELEMENT_SET_NO = 999
REV_AT_EPOCH   = 1686
BSTAR          = -.39175298E-4
MEAN_MOTION_DOT = -.127E-5
MEAN_MOTION_DDOT = 0

CCSDS_OMM_VERS = 2.0
CREATION_DATE  = 
ORIGINATOR     = 

OBJECT_NAME    = SL-14 R/B
OBJECT_ID      = 1987-038B
CENTER_NAME    = EARTH
REF_FRAME      = TEME
TIME_SYSTEM    = UTC
MEAN_ELEMENT_THEORY = SGP/SGP4

EPOCH          = 2026-03-20T13:07:19.415136
MEAN_MOTION    = 14.85378480
ECCENTRICITY   = .00204675
INCLINATION    = 82.4984
RA_OF_ASC_NODE = 286.5779
ARG_OF_PERICENTER = 126.1406
MEAN_ANOMALY   = 234.1708

EPHEMERIS_TYPE = 0
CLASSIFICATION_TYPE = U
NORAD_CAT_ID   = 17912
ELEMENT_SET_NO = 999
REV_AT_EPOCH   = 8084
BSTAR          = .43626051E-4
MEAN_MOTION_DOT = .401E-5
MEAN_MOTION_DDOT = 0

CCSDS_OMM_VERS = 2.0
CREATION_DATE  = 
ORIGINATOR     = 

OBJECT_NAME    = COSMOS 1844
OBJECT_ID      = 1987-041A
CENTER_NAME    = EARTH
REF_FRAME      = TEME
TIME_SYSTEM    = UTC
MEAN_ELEMENT_THEORY = SGP/SGP4

EPOCH          = 2026-03-20T12:03:31.495968
MEAN_MOTION    = 14.14551601
ECCENTRICITY   = .0030572
INCLINATION    = 70.9009
RA_OF_ASC_NODE = 11.3690
ARG_OF_PERICENTER = 2.1043
MEAN_ANOMALY   = 358.0201

EPHEMERIS_TYPE = 0
CLASSIFICATION_TYPE = U
NORAD_CAT_ID   = 17973
ELEMENT_SET_NO = 999
REV_AT_EPOCH   = 511
BSTAR          = .77920348E-4
MEAN_MOTION_DOT = .102E-5
MEAN_MOTION_DDOT = 0

CCSDS_OMM_VERS = 2.0
CREATION_DATE  = 
ORIGINATOR     = 

OBJECT_NAME    = SL-14 R/B
OBJECT_ID      = 1987-055B
CENTER_NAME    = EARTH
REF_FRAME      = TEME
TIME_SYSTEM    = UTC
MEAN_ELEMENT_THEORY = SGP/SGP4

EPOCH          = 2026-03-20T10:54:17.415936
MEAN_MOTION    = 14.85640159
ECCENTRICITY   = .00201712
INCLINATION    = 82.5023
RA_OF_ASC_NODE = 338.8884
ARG_OF_PERICENTER = 342.3294
MEAN_ANOMALY   = 17.7218

EPHEMERIS_TYPE = 0
CLASSIFICATION_TYPE = U
NORAD_CAT_ID   = 18153
ELEMENT_SET_NO = 999
REV_AT_EPOCH   = 7153
BSTAR          = .43634873E-4
MEAN_MOTION_DOT = .403E-5
MEAN_MOTION_DDOT = 0

CCSDS_OMM_VERS = 2.0
CREATION_DATE  = 
ORIGINATOR     = 

OBJECT_NAME    = COSMOS 1867
OBJECT_ID      = 1987-060A
CENTER_NAME    = EARTH
REF_FRAME      = TEME
TIME_SYSTEM    = UTC
MEAN_ELEMENT_THEORY = SGP/SGP4

EPOCH          = 2026-03-20T13:10:55.297632
MEAN_MOTION    = 14.31504634
ECCENTRICITY   = .00146511
INCLINATION    = 65.0094
RA_OF_ASC_NODE = 276.2923
ARG_OF_PERICENTER = 279.2787
MEAN_ANOMALY   = 80.6641

EPHEMERIS_TYPE = 0
CLASSIFICATION_TYPE = U
NORAD_CAT_ID   = 18187
ELEMENT_SET_NO = 999
REV_AT_EPOCH   = 2149
BSTAR          = .24189963E-4
MEAN_MOTION_DOT = -.36E-6
MEAN_MOTION_DDOT = 0

CCSDS_OMM_VERS = 2.0
CREATION_DATE  = 
ORIGINATOR     = 

OBJECT_NAME    = SL-14 R/B
OBJECT_ID      = 1988-001B
CENTER_NAME    = EARTH
REF_FRAME      = TEME
TIME_SYSTEM    = UTC
MEAN_ELEMENT_THEORY = SGP/SGP4

EPOCH          = 2026-03-20T09:11:39.568704
MEAN_MOTION    = 14.85539543
ECCENTRICITY   = .0017592
INCLINATION    = 82.5161
RA_OF_ASC_NODE = 185.3055
ARG_OF_PERICENTER = 198.5177
MEAN_ANOMALY   = 161.5401

EPHEMERIS_TYPE = 0
CLASSIFICATION_TYPE = U
NORAD_CAT_ID   = 18749
ELEMENT_SET_NO = 999
REV_AT_EPOCH   = 4361
BSTAR          = .50017E-4
MEAN_MOTION_DOT = .457E-5
MEAN_MOTION_DDOT = 0

CCSDS_OMM_VERS = 2.0
CREATION_DATE  = 
ORIGINATOR     = 

OBJECT_NAME    = COSMOS 1933
OBJECT_ID      = 1988-020A
CENTER_NAME    = EARTH
REF_FRAME      = TEME
TIME_SYSTEM    = UTC
MEAN_ELEMENT_THEORY = SGP/SGP4

EPOCH          = 2026-03-20T09:39:52.095456
MEAN_MOTION    = 15.18076490
ECCENTRICITY   = .00047427
INCLINATION    = 82.5106
RA_OF_ASC_NODE = 240.3093
ARG_OF_PERICENTER = 147.6353
MEAN_ANOMALY   = 212.5172

EPHEMERIS_TYPE = 0
CLASSIFICATION_TYPE = U
NORAD_CAT_ID   = 18958
ELEMENT_SET_NO = 999
REV_AT_EPOCH   = 5185
BSTAR          = .18142529E-3
MEAN_MOTION_DOT = .3726E-4
MEAN_MOTION_DDOT = 0

